UNKNOWN                 
1 89403U          25217.14719332  .00001061  00000+0  35802-2 0  9998
2 89403  90.2482   2.8543 0029026 203.0910 337.6638 12.98343713461005
UNKNOWN                 
1 89484U          25217.32621027  .00004705  00000+0  72890-2 0  9996
2 89484  84.1955 190.7036 2809367 194.8279 155.0066  9.04093667343690
UNKNOWN                 
1 89493U          25213.64512720  .00002316  00000+0  11723-2 0  9990
2 89493  99.0360 280.7473 0083283  58.3835 302.5431 14.15328245445117
UNKNOWN                 
1 89494U          25211.92593736  .00002364  00000+0  11970-2 0  9993
2 89494  99.0356 278.9063 0084192  63.3363 297.6401 14.15255948444725
